OBJECT_NAME,OBJECT_ID,EPOCH,MEAN_MOTION,ECCENTRICITY,INCLINATION,RA_OF_ASC_NODE,ARG_OF_PERICENTER,MEAN_ANOMALY,EPHEMERIS_TYPE,CLASSIFICATION_TYPE,NORAD_CAT_ID,ELEMENT_SET_NO,REV_AT_EPOCH,BSTAR,MEAN_MOTION_DOT,MEAN_MOTION_DDOT
SL-14 R/B,1990-018B,2026-06-29T07:08:55.167072,14.82224251,.0017701,82.5219,118.7886,85.1733,275.1502,0,U,20511,999,93911,.49068E-4,.416E-5,0
HST,1990-037B,2026-06-28T21:04:19.270848,15.30881351,.00014112,28.4733,0.6674,286.0347,74.0094,0,U,20580,999,79036,.20096634E-3,.6406E-4,0
SL-16 R/B,1990-046B,2026-06-28T23:10:33.623616,14.15025605,.00126206,70.9998,64.2121,142.9188,217.2809,0,U,20625,999,86413,-.99404286E-4,-.24E-5,0
COSMOS 2084,1990-055A,2026-06-29T13:02:25.807200,15.06166828,.000636,62.7912,313.9152,299.6253,60.4214,0,U,20663,999,95316,.14874E-3,.1987E-4,0
SL-6 R/B(2),1990-055D,2026-06-29T11:34:29.786016,15.04038907,.0042651,62.7807,233.5367,6.8345,353.3326,0,U,20666,999,95500,.11351E-3,.1399E-4,0
SL-8 R/B,1990-078B,2026-06-29T09:29:50.652960,14.92923769,.0347444,82.9017,150.6091,357.2392,2.6897,0,U,20775,999,82594,.78349E-3,.27719E-3,0
SL-8 R/B,1991-006B,2026-06-28T19:56:28.754304,13.77506958,.00238911,82.9424,87.3721,83.8548,340.0183,0,U,21088,999,77937,.50906721E-4,.66E-6,0
OKEAN-3,1991-039A,2026-06-29T12:03:18.450432,15.05379588,.0012634,82.5159,228.4400,312.2831,47.7323,0,U,21397,999,88185,.12696E-3,.185E-4,0
COSMOS 2151,1991-042A,2026-06-29T11:07:47.046144,15.00472867,.0013317,82.4966,335.8322,46.6806,313.5526,0,U,21422,999,87995,.12367E-3,.1586E-4,0
SL-14 R/B,1991-042B,2026-06-29T07:22:00.111072,14.81909663,.001571,82.4937,115.5307,231.1791,128.8022,0,U,21423,999,86960,.41504E-4,.352E-5,0
ERS-1,1991-050A,2026-06-29T12:53:29.011776,14.39524919,.0031007,98.7794,201.5369,228.9895,130.8610,0,U,21574,999,83182,.12394E-3,.342E-5,0
ARIANE 40 R/B,1991-050F,2026-06-28T16:45:56.178432,14.42963302,.00044883,98.1870,227.6669,96.5733,263.5969,0,U,21610,999,83500,.89712934E-4,.259E-5,0
INTERCOSMOS 25,1991-086A,2026-06-28T21:57:14.592672,12.12214914,.14840042,82.6037,242.7133,237.0685,107.9073,0,U,21819,999,51016,.1241153E-3,.627E-5,0
SL-8 R/B,1992-008B,2026-06-29T11:57:33.723072,13.75980171,.0034657,82.9259,184.6337,179.8777,293.9673,0,U,21876,999,72479,.13213E-3,.144E-5,0
SL-8 R/B,1992-020B,2026-06-28T23:21:14.720256,13.75549931,.00289086,82.9302,71.1032,349.9952,20.5990,0,U,21938,999,71643,.47813069E-4,.61E-6,0
USA 81,1992-023A,2026-06-29T03:36:34.602336,14.32401145,.0002576,85.0067,67.1027,74.4821,285.6655,0,U,21949,999,11074,.52939E-4,.163E-5,0
COSMOS 2219,1992-076A,2026-06-29T08:34:43.411296,14.14107595,.001725,71.0603,144.6300,23.4475,336.7430,0,U,22219,999,73416,.13977E-3,.219E-5,0
SL-16 R/B,1992-076B,2026-06-29T12:40:11.754912,14.16875128,.0015036,71.0014,312.7842,282.4505,148.8670,0,U,22220,999,73767,-.82053E-4,-.213E-5,0
COSMOS 2221,1992-080A,2026-06-29T10:36:01.499328,14.96564616,.0014422,82.5032,172.0233,170.1120,190.0389,0,U,22236,999,79750,.13447E-3,.1559E-4,0
SL-16 R/B,1992-093B,2026-06-28T21:40:12.279360,14.15462280,.00033382,71.0209,130.7965,166.0591,194.0625,0,U,22285,999,72889,.15988197E-3,.265E-5,0
COSMOS 2228,1992-094A,2026-06-29T12:21:58.313664,14.97629095,.0016076,82.5184,130.2345,287.5049,72.4416,0,U,22286,999,79279,.15564E-3,.185E-4,0
SL-16 R/B,1993-016B,2026-06-29T12:29:12.757056,14.15315048,.0009392,71.0088,340.3027,165.6757,194.4634,0,U,22566,999,71799,-.94127E-4,-.231E-5,0
COSMOS 2242,1993-024A,2026-06-29T09:55:26.863968,14.96940295,.0014488,82.5184,159.8451,291.8416,68.1264,0,U,22626,999,79710,.15444E-3,.1803E-4,0
SL-16 R/B,1993-059B,2026-06-29T06:38:38.175072,14.17248023,.001579,70.9895,135.8088,33.9689,326.2442,0,U,22803,999,69534,.12298E-3,.201E-5,0
ARIANE 40 R/B,1993-061H,2026-06-29T03:30:14.033664,14.32912484,.0009777,98.4815,246.7545,319.0676,40.9774,0,U,22830,999,71006,.8492E-4,.189E-5,0
COSMOS 2278,1994-023A,2026-06-29T13:15:49.639104,14.14397587,.0010379,71.0551,301.0537,228.6356,131.3875,0,U,23087,999,66062,-.82302E-4,-.205E-5,0
SL-16 R/B,1994-023B,2026-06-29T11:28:37.968672,14.15027121,.0001925,70.9983,196.1192,175.4991,184.6149,0,U,23088,999,66190,-.63563E-4,-.171E-5,0
SL-16 R/B,1994-074B,2026-06-29T12:59:13.700256,14.79512453,.0005808,97.6987,206.7472,205.0261,307.9629,0,U,23343,999,70378,.62124E-4,.415E-5,0
SL-16 R/B,1994-077B,2026-06-29T06:35:50.380224,14.15577925,.0003632,70.9831,117.7325,316.9215,43.1623,0,U,23405,999,63202,.33228E-4,.17E-6,0
ARIANE 40+ R/B,1995-021B,2026-06-28T23:01:23.279808,14.39839437,.00072065,98.4408,249.8640,159.1614,14.5185,0,U,23561,999,63525,.89989338E-4,.239E-5,0
SL-16 R/B,1995-058B,2026-06-29T11:58:53.962752,14.15511620,.0014513,71.0229,305.5084,303.5199,56.4537,0,U,23705,999,58367,-.69564E-4,-.184E-5,0
