SL-14 R/B               
1 20511U 90018B   26180.29786073  .00000416  00000+0  49068-4 0  9997
2 20511  82.5219 118.7886 0017701  85.1733 275.1502 14.82224251939116
HST                     
1 20580U 90037B   26179.87800082  .00006406  00000+0  20097-3 0  9998
2 20580  28.4733   0.6674 0001411 286.0347  74.0094 15.30881351790368
SL-16 R/B               
1 20625U 90046B   26179.96566694 -.00000240  00000+0 -99404-4 0  9997
2 20625  70.9998  64.2121 0012620 142.9188 217.2809 14.15025605864139
COSMOS 2084             
1 20663U 90055A   26180.54335425  .00001987  00000+0  14874-3 0  9995
2 20663  62.7912 313.9152 0006360 299.6253  60.4214 15.06166828953165
SL-6 R/B(2)             
1 20666U 90055D   26180.48228919  .00001399  00000+0  11351-3 0  9994
2 20666  62.7807 233.5367 0042651   6.8345 353.3326 15.04038907955006
SL-8 R/B                
1 20775U 90078B   26180.39572515  .00027719  00000+0  78349-3 0  9998
2 20775  82.9017 150.6091 0347444 357.2392   2.6897 14.92923769825941
SL-8 R/B                
1 21088U 91006B   26179.83088836  .00000066  00000+0  50907-4 0  9990
2 21088  82.9424  87.3721 0023891  83.8548 340.0183 13.77506958779370
OKEAN-3                 
1 21397U 91039A   26180.50229688  .00001850  00000+0  12696-3 0  9991
2 21397  82.5159 228.4400 0012634 312.2831  47.7323 15.05379588881857
COSMOS 2151             
1 21422U 91042A   26180.46373896  .00001586  00000+0  12367-3 0  9991
2 21422  82.4966 335.8322 0013317  46.6806 313.5526 15.00472867879952
SL-14 R/B               
1 21423U 91042B   26180.30694573  .00000352  00000+0  41504-4 0  9999
2 21423  82.4937 115.5307 0015710 231.1791 128.8022 14.81909663869606
ERS-1                   
1 21574U 91050A   26180.53714134  .00000342  00000+0  12394-3 0  9999
2 21574  98.7794 201.5369 0031007 228.9895 130.8610 14.39524919831823
ARIANE 40 R/B           
1 21610U 91050F   26179.69856688  .00000259  00000+0  89713-4 0  9993
2 21610  98.1870 227.6669 0004488  96.5733 263.5969 14.42963302835000
INTERCOSMOS 25          
1 21819U 91086A   26179.91475223  .00000627  00000+0  12412-3 0  9990
2 21819  82.6037 242.7133 1484004 237.0685 107.9073 12.12214914510160
SL-8 R/B                
1 21876U 92008B   26180.49830698  .00000144  00000+0  13213-3 0  9998
2 21876  82.9259 184.6337 0034657 179.8777 293.9673 13.75980171724794
SL-8 R/B                
1 21938U 92020B   26179.97308704  .00000061  00000+0  47813-4 0  9992
2 21938  82.9302  71.1032 0028908 349.9952  20.5990 13.75549931716434
USA 81                  
1 21949U 92023A   26180.15040049  .00000163  00000+0  52939-4 0  9992
2 21949  85.0067  67.1027 0002576  74.4821 285.6655 14.32401145110747
COSMOS 2219             
1 22219U 92076A   26180.35744689  .00000219  00000+0  13977-3 0  9994
2 22219  71.0603 144.6300 0017250  23.4475 336.7430 14.14107595734167
SL-16 R/B               
1 22220U 92076B   26180.52791383 -.00000213  00000+0 -82053-4 0  9996
2 22220  71.0014 312.7842 0015036 282.4505 148.8670 14.16875128737678
COSMOS 2221             
1 22236U 92080A   26180.44168402  .00001559  00000+0  13447-3 0  9991
2 22236  82.5032 172.0233 0014422 170.1120 190.0389 14.96564616797506
SL-16 R/B               
1 22285U 92093B   26179.90291990  .00000265  00000+0  15988-3 0  9992
2 22285  71.0209 130.7965 0003338 166.0591 194.0625 14.15462280728890
COSMOS 2228             
1 22286U 92094A   26180.51525826  .00001850  00000+0  15564-3 0  9992
2 22286  82.5184 130.2345 0016076 287.5049  72.4416 14.97629095792793
SL-16 R/B               
1 22566U 93016B   26180.52028654 -.00000231  00000+0 -94127-4 0  9993
2 22566  71.0088 340.3027 0009392 165.6757 194.4634 14.15315048717992
COSMOS 2242             
1 22626U 93024A   26180.41350537  .00001803  00000+0  15444-3 0  9993
2 22626  82.5184 159.8451 0014488 291.8416  68.1264 14.96940295797107
SL-16 R/B               
1 22803U 93059B   26180.27683073  .00000201  00000+0  12298-3 0  9991
2 22803  70.9895 135.8088 0015790  33.9689 326.2442 14.17248023695340
ARIANE 40 R/B           
1 22830U 93061H   26180.14599576  .00000189  00000+0  84920-4 0  9991
2 22830  98.4815 246.7545 0009777 319.0676  40.9774 14.32912484710060
COSMOS 2278             
1 23087U 94023A   26180.55265786 -.00000205  00000+0 -82302-4 0  9996
2 23087  71.0551 301.0537 0010379 228.6356 131.3875 14.14397587660629
SL-16 R/B               
1 23088U 94023B   26180.47821723 -.00000171  00000+0 -63563-4 0  9997
2 23088  70.9983 196.1192 0001925 175.4991 184.6149 14.15027121661900
SL-16 R/B               
1 23343U 94074B   26180.54113079  .00000415  00000+0  62124-4 0  9994
2 23343  97.6987 206.7472 0005808 205.0261 307.9629 14.79512453703780
SL-16 R/B               
1 23405U 94077B   26180.27488866  .00000017  00000+0  33228-4 0  9996
2 23405  70.9831 117.7325 0003632 316.9215  43.1623 14.15577925632029
ARIANE 40+ R/B          
1 23561U 95021B   26179.95929722  .00000239  00000+0  89989-4 0  9994
2 23561  98.4408 249.8640 0007206 159.1614  14.5185 14.39839437635253
SL-16 R/B               
1 23705U 95058B   26180.49923568 -.00000184  00000+0 -69564-4 0  9995
2 23705  71.0229 305.5084 0014513 303.5199  56.4537 14.15511620583674
